#aV2010  4 19  0  0   .00000000      96 DD+AD WGS84 FIT  NGA
## 1580  86400.00000000   900.00000000 55305  .0000000000000
+   31     1  2  3  4  5  6  7  8  9 10 11 12 13 14 15 16 17
+         18 19 20 21 22 23 24 26 27 28 29 30 31 32  0  0  0
+          0  0  0  0  0  0  0  0  0  0  0  0  0  0  0  0  0
+          0  0  0  0  0  0  0  0  0  0  0  0  0  0  0  0  0
+          0  0  0  0  0  0  0  0  0  0  0  0  0  0  0  0  0
++         0  0  0  0  0  0  0  0  0  0  0  0  0  0  0  0  0
++         0  0  0  0  0  0  0  0  0  0  0  0  0  0  0  0  0
++         0  0  0  0  0  0  0  0  0  0  0  0  0  0  0  0  0
++         0  0  0  0  0  0  0  0  0  0  0  0  0  0  0  0  0
++         0  0  0  0  0  0  0  0  0  0  0  0  0  0  0  0  0
%c cc cc ccc ccc cccc cccc cccc cccc ccccc ccccc ccccc ccccc
%c cc cc ccc ccc cccc cccc cccc cccc ccccc ccccc ccccc ccccc
%f  0.0000000  0.000000000  0.00000000000  0.000000000000000
%f  0.0000000  0.000000000  0.00000000000  0.000000000000000
%i    0    0    0    0      0      0      0      0         0
%i    0    0    0    0      0      0      0      0         0
/*      NGA, ST. LOUIS,MO.                                  
/*   EPHEMERIS COMPUTED FROM  3 DAYS OF DATA                
/* CCCCCCCCCCCCCCCCCCCCCCCCCCCCCCCCCCCCCCCCCCCCCCCCCCCCCCCCC
/* CCCCCCCCCCCCCCCCCCCCCCCCCCCCCCCCCCCCCCCCCCCCCCCCCCCCCCCCC
*  2010  4 19 17  0   .00000000                                                 
P  1  -4643.554342 -14475.152395 -21905.815953   -111.073679                    
V  1  26297.282500  -8081.091799    -95.304379      -.040493                    
P  2  15080.606104   4365.303502 -21464.451436    247.971534                    
V  2  -5693.830700  26647.811959    967.448857       .036305                    
P  3 -23348.566038  -7664.044680  10144.331092    544.049886                    
V  3  -8858.096654 -10502.424344 -27008.142593       .050491                    
P  4   8295.658679  18703.808715 -16909.770077     63.589534                    
V  4  -7156.475676  20256.471194  19444.904610       .085351                    
P  5  24921.814887   -840.213183  -9289.353000     -1.887120                    
V  5 -10479.451584   5876.996904 -28625.670500      -.000846                    
P  6 -22713.400560 -11531.923808   7949.187065    662.390156                    
V  6  -5418.669011  -8847.341013 -28847.722713      -.097105                    
P  7  -6329.638731  25701.747934   -376.273385       .338598                    
V  7  -2441.263180  -1056.350641 -32092.459617      -.003890                    
P  8    926.696383  23427.052547  11933.384687      4.979256                    
V  8  -6323.438607  14087.953504 -27636.318723       .002419                    
P  9  14337.309134 -14096.900900  16790.451061      1.793583                    
V  9  -2890.982997  22211.869837  20515.272545       .021388                    
P 10  20540.665713   6114.566991 -16089.691276    -40.696332                    
V 10 -18760.711965   7087.540886 -21162.051093      -.009486                    
P 11 -11802.495193  18383.260339  14608.755276    -57.505503                    
V 11  -3910.212924 -19372.512349  21215.747317      -.022588                    
P 12  22339.810003 -11988.686523  -7598.004014   -124.826587                    
V 12  10057.599765   -352.397078  30065.026849       .044123                    
P 13  -2401.474090  16961.219464 -20428.561847    305.179132                    
V 13 -17937.174842 -18215.979936 -13123.341212      -.002881                    
P 14 -14286.839881 -21376.748694   7056.517796     35.847397                    
V 14   7359.540056   5013.328749  30554.147119       .045800                    
P 15  19626.531496    597.617708  17954.948377   -284.559808                    
V 15  15757.985804  16484.199007 -17672.305981       .049536                    
P 16 -22238.560012  -3914.924302 -14158.587724    -63.174073                    
V 16  16827.291699  -6416.810435 -24306.016318      -.038425                    
P 17  14297.231023  21285.375636   7431.903018    145.353929                    
V 17  -8352.583333  -4692.750251  29708.483337       .024999                    
P 18   6446.663058 -16791.831777  19688.891770     62.905679                    
V 18  24150.775044  -5096.010495 -12797.873226       .024531                    
P 19 -18858.486476   -986.072282  18832.143758    -29.182737                    
V 19 -15066.748013 -18396.149720 -15782.279468      -.025710                    
P 20 -20011.097218  14430.139242  -9904.920580     57.465742                    
V 20 -12797.013183    989.039156  27732.677631      -.006166                    
P 21   3091.804732 -25732.890446   4280.324789    -54.550329                    
V 21   5248.373633  -4022.784548 -30892.832700      -.025557                    
P 22  -6908.024368 -14438.551372  21361.507231    174.072343                    
V 22  25806.966866  -7399.843311   3281.478702      -.008396                    
P 23 -10935.961059  10390.749910 -21893.800580    373.702773                    
V 23 -20113.120812 -19050.184938    702.578549      -.012565                    
P 24   1454.930580 -25490.590131   7891.892701    280.424793                    
V 24   5341.516709  -8707.945880 -29189.691215       .032119                    
P 26   8151.999695 -12032.017917  21635.288343    -41.378272                    
V 26  20038.134927  20676.382744   4273.104197      -.046382                    
P 27  15270.225960 -10640.516795  19577.313151    144.468911                    
V 27  -3093.672980  23232.164742  15733.780674       .035002                    
P 28   4224.406542  14648.143018  22226.756713    -18.163255                    
V 28 -26168.244977   6869.681120    171.815964       .008413                    
P 29   3287.932903 -16741.987595 -20270.957908    113.828719                    
V 29  19101.043481  17585.137597 -11333.630890       .028313                    
P 30  13210.557215 -16766.995428 -16162.784704    235.140518                    
V 30  19357.185513  -4769.718361  21343.210436       .033562                    
P 31  -8770.118271 -16788.316106 -18335.225550    -41.297650                    
V 31   6815.872285 -22782.179426  17571.384986       .021435                    
P 32 -25388.811670   6781.590527  -1941.586585     47.900675                    
V 32  -3497.525920  -2485.656319  31820.246797      -.084789                    
EOF
